COLLEGE_NAME,ADDRESS,DISTRICT,STATE,OFFICE_NUMBER,EMAIl,WEBSITE_LINK
 Government Institute of Printing Technology| Mumbai,J.J School Of Architecture Compound| Near Cst Station| Mumbai 400001,Mumbai City,Maharashtra,20821474//,gipt_m@rediffmail.com,www.gipt.ac.in
Veermata Jijabai Technological Institute(VJTI)| Matunga| Mumbai,H.R. Mahajani Marg| Matunga| Mumbai,Mumbai City,Maharashtra,24198101//24198101,director@vjti.org.in,www.vjti.ac.in
Sardar Patel College of Engineering| Andheri,Munshi Nagar| Andheri (West)|  Mumbai - Suburban |Mumbai,Mumbai Suburban,Maharashtra,26232192//26708371,principal@spce.ac.in,www.spce.ac.in
St. Xavier's Technical Institute| Mumbai,Mahim Causeway Road| Mahim| Mumbai | 400016,Mumbai City,Maharashtra,24455937//24451961,office@xaviertech.com,www.xaviertech.com
Father Agnel Technical College (Polytechnic)| Bandra(W)| Mumbai,Fr. Agnel Ashram Mumbai | 400050,Mumbai City,Maharashtra,67114054//67114051,fragnel_bandra@yahoo.com,atc.fragnel.ac.in
Dr. Babasaheb Ambedkar Technological University| Lonere,Vidyavihar| P.O. Lonere| Ta-Mangaon Dist. Raigad,Raigad,Maharashtra,275142//,registrar@dbatu.ac.in,www.dbatu.ac.in
Usha Mittal Institute of Technology SNDT  Women's University| Mumbai,SNDT  Women's University| Mumbai Juhu Campus| Santacruz (W)| Mumbai,Mumbai Suburban,Maharashtra,26605183//,umit@sndt.ac.in,www.umit.ac.in
Institute of Chemical Technology| Matunga| Mumbai,Nathalal Parikh Marg| Matunga| Mumbai,Mumbai City,Maharashtra,33611111//,ar.acad@staff.ictmumbai.edu.in,www.ictmumbai.edu.in
Dr. Babasaheb Ambedkar Tech.University|Institute of Petrochemical Engineering|Lonere|Raigad,Vidyavihar|P.O.Lonere|Tal-Mangaon. Raigad | 402103,Raigad,Maharashtra,275103//275103,iopelonere@rediffmail.com,www.iopelonere.com
Manjara Charitable Trust's Rajiv Gandhi Institute of Technology| Mumbai,Off. Juhu Versova Link Road| Versova| Andheri(W) Mumbai,Mumbai Suburban,Maharashtra,26707026//26707025,mctrgit02@gmail.com,www.mctrgit.ac.in
Vidyalankar Institute of Technology|Wadala| Mumbai,Vidyalankar Educational Campus|Vidyalankar College Marg| Wadala(E)| Mumbai,Mumbai City,Maharashtra,24161126//24161126,principal@vit.edu.in,www.vit.edu.in
Jawahar Education Society's Annasaheb Chudaman Patil College of Engineering|Kharghar| Navi Mumbai,Sector 4|Ploat No-17|Kharghar| Navi Mumbai. Dist. Raigad,Raigad,Maharashtra,27745722//27747521,principal@acpce.ac.in,www.acpce.org
Saraswati Education Society| Yadavrao Tasgaonkar  Institute of Engineering & Technology| Karjat,Near Bhiv puri Road Railway statiion Chandai |Tal Karjat| Dist Raigad,Raigad,Maharashtra,8806753541//,nanduyt@hotmail.com,www.tasgaonkartech.com
Mahavir Education Trust's Shah & Anchor Kutchhi Engineering College| Mumbai,Vaman Tukaram Patil Marg| Chembur| Mumbai,Mumbai Suburban,Maharashtra,25580854//67978100,principal@sakec.ac.in,www.shahandanchor.com
Saraswati Education Society's Saraswati College of Engineering|Kharghar Navi Mumbai,Plot No 46/46 A| Sector 5 Near MSEB Sub Station Kharghar Navi Mumbai  Dist. Raigad,Raigad,Maharashtra,27743705//27743706,registrarsaraswati@gmail.com,www.sce.edu.in
Bharti Vidyapeeth's Institute of Management & Information Technology| Navi Mumbai,Sector 8. CBD| Belapur| Navi Mumbai  400614,Thane,Maharashtra,27578415//27578415,admission@bvimit.co.in,www.bvimit.co.in
Deccan Education Society's Navinchandra Mehta Institute of Technology & Development| Dadar| Mumbai,DES's Mumbai Campus| Kirti College Road| Dadar (W)| Mumbai.  400028,Mumbai City,Maharashtra,62764583//62764583,director@nmitd.edu.in,www.nmitd.edu.in
M.G.M.'s College of Engineering and Technology| Kamothe| Navi Mumbai,At Junction of NH4 & Sion-Panvel Expressway|  Kamothe| Navi Mumbai,Raigad,Maharashtra,27433421//65138119,principal.cet@mgmmumbai.ac.in,www.mgmmumbai.ac.in
Thakur College of Engineering and Technology| Kandivali| Mumbai,Thakur Shyamnarayan Marg|Thakur Village|Kandivali(E)| Mumbai,Mumbai Suburban,Maharashtra,67308000//67308000,tcet@thakureducation.org,www.tcetmumbai.in
K.J.Somaiya College of Engineering| Vidyavihar| Mumbai,Vidya_Nagar| Vidya Vihar| Mumbai,Mumbai Suburban,Maharashtra,66449191//,principal.engg@somaiya.edu,www.somaiya.edu/kjsce
Thadomal Shahani Engineering College| Bandra| Mumbai,37th Road| Off Linking Road| (Near National)| Bandra (West)| Mumbai,Mumbai Suburban,Maharashtra,26041631//26047087,gtthampi@yahoo.com,www.tsec.edu
Anjuman-I-Islam's M.H. Saboo Siddik College of Engineering| Byculla| Mumbai,8| M.H.Saboo Siddik Polytechnic Road| P.O.Box: 4627| Byculla |Mumbai,Mumbai City,Maharashtra,23012922//,aimhssce@gmail.com,www.mhssce.ac.in
Fr. Conceicao Rodrigues College of Engineering| Bandra|Mumbai,Father Agnel Ashram | Band-stand| Bandra (West)| Mumbai,Mumbai Suburban,Maharashtra,67114000//67114101,crce@fragnel.edu.in,www.fragnel.edu.in
Vivekanand Education Society's Institute of Technology| Chembur| Mumbai,Hashu Advani Memorial Complex| Behind Collector Colony| R.C. Marg| Chembur| Mumbai,Mumbai Suburban,Maharashtra,61532532//61532511,vesit@vsnl.com,www.ves.ac.in/vesit
N.Y.S.S.'s Datta Meghe College of Engineering| Airoli| Navi Mumbai,P.B. No. 15| CIDCO Colony| Plot No. 98| Sector 3|  Airoli| Navi Mumbai,Thane,Maharashtra,27791662//,principaldmce@yahoo.com,www.dmce.ac.in
Padmabhushan Vasantdada Patil Pratishthans College of Engineering| Sion|Mumbai,Padmabhushan Vasantdada Patil Education Complex| Eastern Express Highway| Near Everard Nagar|  Sion-Chunabhatti Mumbai,Mumbai City,Maharashtra,24070547//,principal@pvppcoe.ac.in,www.pvppcoe.ac.in
Bharati Vidyapeeth College of Engineering|  Navi Mumbai,Sector - 7|CBD- Belpur| Navi Mumbai 400614,Thane,Maharashtra,27572140//27571074,principal.bvcoenm@bharatividyapeeth.edu,www.bvcoenm.edu.in
Terna Engineering College| Nerul| Navi Mumbai,Plot No. 12| Sector-22|Opp. Nerul Railway Station|Phase-II| Nerul (W)|Navi Mumbai,Thane,Maharashtra,61115444//61115401,principal@terna.org,www.ternaengg.ac.in
Mandar Education Society's Rajaram Shinde College of Engineering| Pedhambe,At Pedhambe| Po. Alore| Tal : Chiplun| Dist. Ratnagiri,Ratnagiri,Maharashtra,230005//230005,rscoedegree@gmail.com,www.mandaredusoc.org
Smt. Indira Gandhi College of Engineering| Navi Mumbai,Plot No.1| Sector No. 08| Ghansoli | Navi Mumbai 400 701,Thane,Maharashtra,27543608//8080949300,contactus@sigce.edu.in,www.sigce.edu.in
Shivajirao S. Jondhale College of Engineering| Dombivali|Mumbai,Sheel Kalyan Highway| Behind Venkatesh Petrolpump| Sonarpada| Manpada Post| Dombivali (E) Thane,Thane,Maharashtra,2872560//2023973,officessjcoe@gmail.com,www.shivajiraojondhalecoe.org.in
Vidyavardhini's College of Engineering and Technology| Vasai,Vasai Road (W Rly)| Tal: Vasai| District Palghar,Palghar,Maharashtra,2338234//2338234,vcet_inbox@vcet.edu.in,www.vcet.edu.in
Lokmanya Tilak College of Engineering| Kopar Khairane| Navi Mumbai,Sector - 4| Plot N0 17 & 18| Vikas Nagar| Koparkhairane| Navi Mumbai,Thane,Maharashtra,27541005//,principal.ltce@gmail.com,www.ltce.in
Agnel Charities' FR. C. Rodrigues Institute of Technology| Vashi| Navi Mumbai,Sector 9-A|  Vashi| Navi Mumbai|,Thane,Maharashtra,227771000//27771000,principalfcrit@gmail.com,www.fcrit.ac.in
Konkan Gyanpeeth College of Engineering| Karjat,Vengaon Road| Dahivali| Karjat,Raigad,Maharashtra,222580//222580,principal@kgce.edu.in,www.kgce.edu.in
Shri Vile Parle Kelvani Mandal's Dwarkadas J. Sanghvi College of Engineering| Vile Parle|Mumbai,Plot No. U-15| J.V.P.D. Scheme| Bhaktivedanta Swami Marg| Vile Parle (West)| Mumbai,Mumbai Suburban,Maharashtra,26123892//26123892,info@djsce.ac.in,www.djsce.ac.in
Hope Foundation and research center's  Finolex Academy of Management and Technology| Ratnagiri,P- 60| P-60/1| MIDC| Mirjole Block| Ratnagiri,Ratnagiri,Maharashtra,229657//229569,admin@famt.ac.in,www.famt.ac.in
Rizvi Education Society's Rizvi College of Engineering| Bandra|Mumbai,Rizvi Educational Complex| Off Carter Road| Sherly Rajan Village| Bandra (W)| Mumbai,Mumbai Suburban,Maharashtra,26043866//,info@eng.rizvi.edu.in,www.eng.rizvi.edu.in
Rajendra Mane College of Engineering & Technology  Ambav Deorukh,At - Ambav (Devrukh).Tal Sangameshwar|Dist.- Ratnagiri,Ratnagiri,Maharashtra,269400//269609,info@rmcet.com,www.rmcet.com
Atharva College of Engineering|Malad(West)|Mumbai,S. No. 263| Plot No. 8-12| Malad-Marve Rd| Charkop Naka| Malad(W)| Mumbai,Mumbai Suburban,Maharashtra,40294949//40294907,ace@atharvaeducation.com,www.atharvaeducation.com
St. Francis Institute of Technology|Borivali| Mumbai,Mount Poinsur| S.V.P. Road| Borivali ( W )| Mumbai,Mumbai Suburban,Maharashtra,28928585//,sfedu@sfit.ac.in,www.sfit.ac.in
S.S.P.M.'s College of Engineering| Kankavli,A/P-Harkul Budruk| Tal- Kankavali. Dist-Sindhudurg,Sindhudurg,Maharashtra,233812//,sspmcoe@gmail.com,www.sspmcoe.ac.in
Mahatma Education Society's Pillai College of Engineering| New Panvel,Dr. K.M.Vasudevan Pillais' Campus Plot No. 10| Sector 16| New Panvel| Dist.Raigad,Raigad,Maharashtra,27456100//27451700,principalpce@mes.ac.in,www.pce.ac.in
Don Bosco Institute of Technology| Mumbai,Premier Automobiles Road|Opp. Fiat Company| Kurla (West)| Mumbai,Mumbai Suburban,Maharashtra,25042018//25040508,dbit@dbit.in,www.dbit.in
K J Somaiya Institute of Engineering and Information Technology| Sion| Mumbai,Somaiya Auryvihar Complex|  Near Everard Nagar Eastern Express Highway| Sion (East)| Mumbai,Mumbai Suburban,Maharashtra,24080331//24061401,principal.tech@somaiya.edu,www.somaiya.edu/vidyavihar/kjsieit
Excelsior Education Society's K.C. College of Engineering and Management Studies and Research| Kopri| Thane (E),Mith bunder Road| Near Sadguru Gardens| Kopri| Thane (E),Thane,Maharashtra,25327100//,kcce21@hotmail.com,www.kccoe.org
S.I.E.S. Graduate School of Technology| Nerul| Navi Mumbai,Sri. Chandrsekarendra Saraswathy Vidyapuram| Sector-5| Plot 1C&1E| Nerul Dist. Raigad,Raigad,Maharashtra,61082400//61082404,principalgst@sies.edu.in,www.siesgst.edu.in
WATUMULL INSTITUTE OF ELECTRONICS ENGINEERING & COMPUTER TECHNOLOGY| ULHASNAGAR,Plot No.157|C.H.M.Campus|Opp.Ullhasnagar Rilway Station|Ulhasnagar-421003(W),Mumbai City,Maharashtra,2567670//,principal@watumull.edu,www.watumull.edu
Xavier Institute Of Engineering C/O  Xavier Technical Institute|Mahim|Mumbai,Opposite S.L.Raheja Hospital| Mahim Causeway| Mahim(W)|   Mumbai,Mumbai City,Maharashtra,24451961//,office@xavier.ac.in,www.xavier.ac.in
Bhartiya Vidya Bhavan's Sardar Patel Institute  of Technology | Andheri| Mumbai,Bhavan's Campus| Versova Road| Munshi Nagar| Andheri (West)| Mumbai,Mumbai Suburban,Maharashtra,26287250//,principal@spit.ac.in,www.spit.ac.in
Gharda Foundation's Gharda Institute of Technology|Khed| Ratnagiri,A & Po. Lavel Tal Khed|  Dist. Ratnagiri,Ratnagiri,Maharashtra,262798//,principal@git-india.edu.in,www.git-india.edu.in
Vighnaharata Trust's  Shivajirao S. Jondhale College of Engineering & Technology| Shahapur| Asangaon| Dist Thane,At Asangaon| Tal Shahapur| Opp Railway station| Dist : Thane,Thane,Maharashtra,273999//273999,vjtsscoe@rediffmail.com,www.jondhleengg.org
Aldel Education Trust's St. John College of Engineering & Management| Vevoor| Palghar,St. John Technical Education Complex| Village Vevoor|Manor Road  Palghar (E),Palghar,Maharashtra,297275//0,office@sjcem.edu.in,www.sjcet.co.in
Koti Vidya Charitable Trust's  Smt. Alamuri Ratnamala Institute of Engineering and Technology|  Sapgaon| Tal. Shahapur,Sapgaon| Taluka Shahapur  Dist. Thane,Thane,Maharashtra,40244310//40244310,registrar@armiet.com,www.armiet.com
Saraswati Education Society| Yadavrao Tasgaonkar College of Engineering and Management| Nasarapur| Chandai| Karjat,Chandhai| Neral - Kadav Raod| Post Nasrapur| Taluka Karjat| Dist. Raigad,Raigad,Maharashtra,321524//321524,sesytcem@gmail.com,www.tasgaonkartech.com
Late Shri. Vishnu Waman Thakur Charitable Trust| Viva Institute of Technology| Shirgaon,Shirgaon| At. Post Virar| Tal. Vasai. Thane,Palghar,Maharashtra,7770002544//7770002544,principalvit@vivacollege.org,www.viva-technology.org
Haji Jamaluddin Thim Trust's Theem College of Engineering| At. Villege Betegaon| Boisar,At Village Betegaon|Boisar Chillhar Road | Near Union Park|  Boisar(E)| Tal: Palghar|,Palghar,Maharashtra,284909//284926,info@theemcoe.org,www.theemcoe.org
Mahatma Education Society's Pillai HOC College of Engineering & Technology| Tal. Khalapur. Dist. Raigad,Pillai HOCL Educational,,,,,
,,,,,,
Campus| Rasayani| Tal. Khalapur. Dist. Raisad-,Raigad,Maharashtra,252005//250066,pragneshshah@mes.ac.in,www.mes.ac.in,
Leela Education Society| G.V. Acharya Institute of Engineering and Technology| Shelu| Karjat,Shelu/Damat Village| (Opp. Shelu Rly Station)| Tal. Karjat. Dist. Raigad,Raigad,Maharashtra,229628//229628,principalgvaiet@yahoo.com,www.leelaeducationsociety.org
Mandar Education Society's Rajaram Shinde  Institute of Engineering and Technology| Pedhambe,Mandar Education Society's| Rajaram Shinde Instt of Engg  Ratnagiri | 415603,Ratnagiri,Maharashtra,230003//,mandar.rsiet@gmail.com,www.mandaredusoc.org
Bharati Vidyapeeth's Institute of Technology| Navi Mumbai,Belpada| C. B. D. SECTOR - 7| OPP. Kharghar Railway Station| Navi Mumbai.,Thane,Maharashtra,27572434//27580126,bvitmumai@yahoo.com,www.iotmumbai.bharatividyapeeth.edu
Maratha Mandir's Babasaheb Gawade Institute of Technology| Mumbai,Maratha Mandir annex|Babasaheb Gawade Chowk|  Mumbai | 400008,Mumbai City,Maharashtra,66044100//66044100,ajit.parab@mmbgims.com,www.mmbgit.org
Kala Vidyamandir Institute of Technology (Polytechnic)| Malad(W)| Mumbai,MHADA World Bank project| Plot  No. M3| RSC|Gaekwad Nagar| Malad(W)|Mumbai | 400095,Mumbai Suburban,Maharashtra,28440012//28440012,kvmitprinicipal@rediffmail.com,www.kvmt.co.in
Shree Shankar Narayan Education Trust|Pravin Patil College of Diploma Engg. & Technology| Bhayinder (E) Western Rly,Navghar|Bhayander(E)| Thane | 401105,Thane,Maharashtra,28044871//28044871,info@prppolytechnic.com,www.prppolytechnic.com
Saraswati Education Society|Saraswati Institute of Technology| Kharghar| Navi Mumbai,Plot No.-46/46A| Behind M.S.E.B.Sub Station| Near Utsav Chowk| Sector-5| Kharghar Navi Mumbai Raigad | 410210,Raigad,Maharashtra,27743705//27743706,ses.siot.os.09@gmail.com,www.siot.edu.in
Bharat College of Engineering| Kanhor| Badlapur(W),Kanhor| Badlapur(w).|Tal- Ambernath. Dist. Thane,Thane,Maharashtra,2665001//7666615915,info@bharatedu.co.in,www.bharatedu.co.in
Dilkap Research Institute Of Engineering and Management Studies| At.Mamdapur| Post- Neral| Tal- Karjat|  Mumbai,Village At.Mamdapur| Post- Neral| Tal- Karjat|  Dist.Raigadh,Raigad,Maharashtra,651806//651806,sumaneducationaltrust@gmail.com,www.driems.in
Shree L.R. Tiwari College of Engineering| Mira Road| Mumbai,Survey no. 267| Near Commisioner's Bungalow|Kanakiya Park|Mira Road (E)Thane,Thane,Maharashtra,28120144//28120145,slrtce@rahuleducation.com,www.slrtce.in
B.R. Harne College of Engineering & Technology| Karav| Tal-Ambernath.,At.Karav| Post Vangani(w)| Tal. Ambernath| Dist. Thane,Thane,Maharashtra,2910190//2910193,jsiddhivinayakf@gmail.com,www.brharnetc.edu.in
Anjuman-I-Islam's Kalsekar Technical Campus| Panvel,Plot No.2| 3 Sector - 16| Khandgaon| Thane Naka| Panvel Dist. Raigad,Raigad,Maharashtra,27481247//27481249,aiktc.newpanvel@gmail.com,www.aiktc.org
Metropolitan Institute of Technology & Management| Sukhalwad| Sindhudurg.,At Village Sukhalwad| Near Sindhudurg Railway Station| Post Oras| Tal. Malvan Dist. Sindhudurg,Sindhudurg,Maharashtra,228553//,jbfmumbai@gmail.com,www.mitm.ac.in
Vishvatmak Jangli Maharaj Ashram Trust's Vishvatmak Om Gurudev College of Engineering| Mohili-Aghai| Shahpur.,At - Mohili| Post. Aghar| Taluka Shahapur| Dist. Thane,Thane,Maharashtra,249001//,vishwatmakengg@gmail.com,www.vishwatmakengg.com
G.M.Vedak Institute of Technology| Tala| Raigad.,At Post Taluka. Tala| Dist. Raigad,Raigad,Maharashtra,269004//269004,gmvedakit@gmail.com,www.gmvit.com
S.K.Education Trust| Dr. Manoj A Shete College of Engineering & Technology| Kasara.,At Post Kasara| Tal. Shahapur| Dist. Thane,Thane,Maharashtra,246023//,skeducationtrust@yahoo.com,www.drmscoet.com
Universal College of Engineering|Kaman Dist. Palghar,Kaman Bhiwandi Road| S.N. 146(Part)| Kaman| Vasai,Palghar,Maharashtra,69624580//2210044,moses.lopes@universal.edu.in,www.ucoe.edu.in
VPM's Maharshi Parshuram College of Engineering| Velneshwar| Ratnagiri.,At Post Velneshwar| Hedvai-Guhagar Road| Guhagar|Ratnagiri.,Ratnagiri,Maharashtra,243101//9527634958,info@vpmmpcoe.org,www.vpmmpcoe.org
Ideal Institute of Technology| Wada| Dist.Thane,40| Pasheri Village| Pimplaj road| Taluka Wada| Dist.Thane.,Palghar,Maharashtra,212144//212144,idealinstituteoftechnology13@gmail.com,www.idealwada.com
Vishwaniketan's Institute of Management Entrepreneurship and Engineering Technology(i MEET)| Khalapur Dist Raigad,Survey No. 52 Kumbhivali| On Mumbai-Pune Expressway| Near Khalapur Toll Naka |Tal-Khalapur| Dist- Raigad,Raigad,Maharashtra,274206//274210,mail.vishwaniketan@gmail.com,www.vishwaniketan.edu.in
New Horizon Institute of Technology & Management| Thane,Anand Nagar| Kavesar| Off. Ghodbunder Road| Thane(W),Thane,Maharashtra,25971778//25971778,principal@nhitm.ac.in,www.nhitm.ac.in
A. P. Shah Institute of Technology| Thane,Survey No. 12| Opp. Hypercity Mall| Kasarvadavali| Ghodbunder Road| Thane (W),Thane,Maharashtra,25973737//,principal@apsit.org.in,www.apsit.edu.in
Chhartrapati Shivaji Maharaj Institute of Technology| Shedung| Panvel,92A/1| Old Mumbai Pune Highway| Near Shedung Toll naka Village Shedung| Panvel| Dist Raigad,Raigad,Maharashtra,//,csmit.mah@gmail.com,www.csmit.in
Indala College Of Engineering| Bapsai Tal.Kalyan,Near Hp Gagangiri Petrol Pump| Kalyan-Murbad Road| Bapsai| Taluka Kalyan| Dist Thane,Thane,Maharashtra,2973456//,icoekalyan1@gmail.com,icoe.ac.in
Government College of Engineering| Amravati,VMV Road| Near Kathora Naka|  Amravati,Amravati,Maharashtra,2531929//2531930,principal@gcoea.ac.in,www.gcoea.ac.in
Government Engineering College| Yavatmal,Post Box N. 24| Dhamangaon Road| Yavatmal,Yavatmal,Maharashtra,07232243//07232238,office.gpyavatmal@dtemaharashtra.gov.in,www.gpyavatmal.edu.in
Shri Sant Gajanan Maharaj College of Engineering|Shegaon,S.S.G.M.C.E Campus| Khamgaon Road| Shegaon Dist. Buldhana,Buldhana,Maharashtra,8669638081//252216,principal@ssgmce.ac.in,www.ssgmce.org
Prof. Ram Meghe Institute of Technology & Research| Amravati,Anjangaon Bari Road| Badnera|  Amravati,Amravati,Maharashtra,2681246//2681246,principal@mitra.ac.in,www.mitra.ac.in
P.R. Patil College of Engineering & Technology| Amravati,Gajanan Township Campus| (Post Estate)| Kathore Road| Amravati,Amravati,Maharashtra,2530344//,director_prpce@rediffmail.com,www.prpcet.org
Shree Hanuman Vyayam Prasark Mandal's P.G. Department  of Computer Science & Technology| Amravati,Hanuman Vyayam Prasarak Mandal|  Hanuman Vyayam Nagar| Amravati,Amravati,Maharashtra,2573258//,coco_mca@hvpm.org,www.hvpm.org
Sipna Shikshan Prasarak Mandal College of Engineering & Technology| Amravati,Sipna campus| Infront of Nemani Godown| Badnera Rd.| Amravati,Amravati,Maharashtra,2522342//2522343,sipnaoffice@gmail.com,www.sipnaengg.ac.in
Shri Shivaji Education Society's College of Engineering and Technology| Akola,Babhulgaon(Jn)| Murtizapur Road| National Highway No. 6| Akola,Akola,Maharashtra,2259069//2456688,principalcoeta@gmail.com,www.coeta.ac.in
Janata Shikshan Prasarak Mandal’s Babasaheb Naik College Of Engineering| Pusad,Kalra Road| Pusad  Dist Yavatmal,Yavatmal,Maharashtra,245229//245229,principal@bncoepusad.ac.in,www.bncoepusad.ac.in
Paramhansa Ramkrishna Maunibaba Shikshan Santha's | Anuradha Engineering College| Chikhali,Anuradhha Nagar| Sakegaon Road| Chikhali Dist. Buldhana,Buldhana,Maharashtra,242063//242580,annprincipal55@gmail.com,www.aecc.ac.in
Jawaharlal Darda Institute of Engineering and Technology| Yavatmal,MIDC| Lohara| Amaravati Road| Yavatmal,Yavatmal,Maharashtra,7447797962//7447797963,jdiet_yml@bsnl.in,www.jdiet.ac.in
Shri Hanuman Vyayam  Prasarak Mandals College of Engineering & Technology| Amravati,Hanuman Vyayam Nagar| H.V.P.M. Campus| Amravati,Amravati,Maharashtra,2563422//2563422,principal@hvpmcoet.in,www.hvpmcoet.in
Dr. Bhausaheb Nadurkar College of Engineering| Waghapur|Yavatmal,Shri Saty Sai Krida Nagari| Waghapur Road| Yavatmal,Yavatmal,Maharashtra,246162//246166,dbncoetytl@gmail.com,www.dbncoet.ac.in
Dr.Rajendra Gode Institute of Technology & Research| Amravati,University Mardi Road| Opp. Heart Hospital| Amravati,Amravati,Maharashtra,2970275//,principal_coe@rediffmail.com,www.drgitr.com
G.H. Raisoni college of Engineering & Management| Amravati,Anjangaon| Bari Road| Amravati,Amravati,Maharashtra,2385432//2385429,vijay.rathod@raisoni.net,ghrcema.raisoni.net
Dwarka Bahu Uddeshiya Gramin Vikas Foundation| Rajarshri Shahu College of Engineering| Buldhana,Rajarshi Shahu Nagar| Near Palna Ghar| Sagwan Road|  Buldhana,Buldhana,Maharashtra,287167//242080,rsc_engg@rediffmail.com,www.rsce.ac.in
Shri. Dadasaheb Gawai Charitable Trust's Dr. Smt. Kamaltai Gawai Institute of Engineering & Technology| Darapur| Amravati,Darapur| Taluka. Daryapur| Amravati,Amravati,Maharashtra,7720032432//,principal.kgiet@gmail.com,www.kgiet.ac.in
Jagadambha Bahuuddeshiya Gramin Vikas Sanstha's Jagdambha College of Engineering and Technology| Yavatmal,Sr. No.167/1|167/2 &163/|Arni Road| Mauza-Kinhi|Tal & Dist-Yavatmal,Yavatmal,Maharashtra,244226//244226,principal@jcoet.org,www.jcoet.org
Prof Ram Meghe College of Engineering  and Management| Badnera,New Express Highway| Badnera Dist. Amravati,Amravati,Maharashtra,2580373//2578385,principal@prmceam.ac.in,www.prmceam.ac.in
Dhamangaon Education Society's College of Engineering and Technology| Dhamangaon,Knowledge Hub| Anjansingi Road| Dhamangaon RlY. Station| Amravati,Amravati,Maharashtra,237335//237335,desdcoet@rediffmail.com,www.descoet.org
Vision Buldhana Educational & Welfare Society's Pankaj Laddhad Institute of Technology & Management Studies| Yelgaon,Chikhali Road| Post Yelgaon| Tal & Buldhana,Buldhana,Maharashtra,//,principal_plit@rediffmail.com,www.plit.ac.in
P. R. Pote Patil Institute of Engineering & Research| At  Kathora| Amravati,Kathora Road| Pote Estate| Mu. Kathora Ta. Dist Amravati,Amravati,Maharashtra,2970408//2970111,prpatilengineering@gmail.com,www.prppier.ac.in
Sanmati Engineering College| Sawargaon Barde| Washim,Survey no. 40| Washim-Malegaon Road| At. Post  Sawargaon Barde Dist. Washim,Washim,Maharashtra,234302//233090,engineering@sanmati.in,www.sanmati.in
Padmashri Dr. V.B.  Kolte College of Engineering| Malkapur| Buldhana,Malkapur| Dist. Buldhana,Buldhana,Maharashtra,226700//224943,coemalkapur@rediffmail.com,www.coemalkapur.ac.in
Bhonsla College of Engineering & Reasearch| Akola,Survey No. 65| Mouza - Hingna Barlingna| Akola-Washim Highway| Tah. & Dist. Akola.,Akola,Maharashtra,6090111//,bim.ngp@gmail.com,www.bhonslacer.org
Mauli Group of Institutions| College of Engineering and Technology| Shegaon.,Khamgaon Road| Shegaon Dist. Buldhana,Buldhana,Maharashtra,7722027506//7722027506,maulicoet@gmail.com,www.mauligroup.org
Harikisan Maloo Institute Of Management & Technology| Amravati,Opp. Deshmukh Lawns| Shegaaon Rahatgaon Road| Amravati.,Amravati,Maharashtra,2970119//90968111,hcminstmngtech@gmail.com,www.maloogroup.org
Pratap Institute of Management & Technology| Washim.,Gat No. 89 & 90| Mauza Walki| Risod Road| Washim,Washim,Maharashtra,288919//288919,pimt.washim@gmail.com,www.pimtwashim.org
Siddhivinayak Technical Campus| School of Engineering & Research Technology| Shirasgon| Nile,Gat No.133|134 & 140| Shegaon Khamgaon Road| Shirasgaon| Nile| Tal. Shegaon,Buldhana,Maharashtra,220222//220333,admn.stc@gmail.com,www.stc.org.in
Manav School of Engineering & Technology| Gut No. 1035 Nagpur Surat Highway| NH No. 6 Tal.Vyala| Balapur| Akola|  444302,Gut No.1035| Surat Nagpur Highway Vyala| Tal.Balapur| Akola,Akola,Maharashtra,238406//238406,principal@manavengineering.ac.in,www.manavengineering.ac.in
Let.Dr.D.B.Dod College of Engineering| Jambla|Achalpur,Sr.No.32/4 | Mauja Jambla| Anjangaon Road| Paratwada Tal. Achalpur Dist. Amravati,Amravati,Maharashtra,225503//9970931278,drdbdod@rediffmail.com,www.dbdcoe.org
Government College of Engineering|  Aurangabad,Station Road| Osmanpura|  Aurangabad,Aurangabad,Maharashtra,2366111//2366111,principalgeca@yahoo.com,www.geca.ac.in
Shri Guru Gobind Singhji Institute of Engineering and Technology| Nanded,Vishnupuri| Nanded,Nanded,Maharashtra,229234//229234,director@sggs.ac.in,www.sggs.ac.in
University Department of Chemical Technology| Aurangabad,Dr. Babasaheb Ambedkar Marathwada University Campus| Aurangabad,Aurangabad,Maharashtra,2403308//2403307,udctaurangabad@yahoo.co.in,www.bamu.net
Shree Yash Pratishthan| Shreeyash College of Engineering and Technology| Aurangabad,Gut No. 258 (P)| Satara Tanda| Tal & Dist. Aurangabad,Aurangabad,Maharashtra,6608701//6608702,sycet@yahoo.com,www.syp.ac.in
G. S. Mandal's Maharashtra Institute of Technology| Aurangabad,N.H. No. 211|Beed bypass Road| Satara| Aurangabad,Aurangabad,Maharashtra,2375222//2375222,spbhosle2001@gmail.com,www.mit.asia
Deogiri Institute of Engineering and Management Studies| Aurangabad,Deogiri College Campus| Railway Station Road| Aurangabad,Aurangabad,Maharashtra,2367575//2367567,shiurkar@gmail.com,www.dietms.org
Shree Sharda Bhavan Education Society's Institute of Technology & Management| Nanded,Yashwant College Campus| VIP Road Nanded|(MS) 431602,Nanded,Maharashtra,254850//253471,ssbesitm@yahoo.com,www.ssbesitm.org
Dnyanopasak Shikshan Mandal's Institute of Information Technology & Management| Parbhani.,C/o. Dnyanopasak College of  Arts| Commeres  & Science| Near Zilla Parishad| Jintur Road| Parbhani  431401,Parbhani,Maharashtra,293044//293044,gopal.hoge@gmail.com,www.dsmiitm.com
Maratha Education Society's Institute of Management studies & Information Technology| Aurangabad,Vivekanand College Campus|  Samarth nagar |Aurangabad  431001,Aurangabad,Maharashtra,2365821//,drashokgaikwad@gmail.com,www.imsit.edu.in
S.V.S.P. Mandal's Swami Vivekanand Institute of Technology and Mangement |Udgir,Avalkonda Road| Udgir| Dist. Latur.   413517,Latur,Maharashtra,253970//253970,svitm934@gmail.com,www.svspm.edu.in
Gramodyogik Shikshan Mandal's Marathwada Institute of Technology| Aurangabad,P.B.-327| Satara Village Rd.|  off Beed By-Pass Highway |Aurangabad,Aurangabad,Maharashtra,2375375//2375111,principal.mite@mit.asia,www.mit.asia
Mahatma Gandhi Missions College of Engineering| Hingoli Rd| Nanded.,Near Airport|Hingoli Road| Nanded,Nanded,Maharashtra,222999//224087,mgmcen@mgmcen.ac.in,www.mgmcen.ac.in
Maharashtra College of Engineering| Nilanga,Maharashtra Education Society's College of Engineering| Nilanga A/P Nilanga Dist. Latur,Latur,Maharashtra,242088//,mcenilanga20@yahoo.com,www.mce-nilanga.com
M.S. Bidve Engineering College| Latur,P.O. Box No. 112| Barshi Road| Latur,Latur,Maharashtra,221255//221846,principal@msbecl.ac.in,www.msbecl.ac.in
Terna Public Charitable Trust's College of Engineering| Osmanabad,Solapur  Road| Osmanabad,Osmanabad,Maharashtra,251011//,coe@ternatrust.org,www.coeosmanabad.com
Shree Tuljabhavani College of Engineering| Tuljapur,Naldurg Road| Tuljapur| Dist. Osmanabad,Osmanabad,Maharashtra,243603//243603,stbcet@gmail.com,www.stbcet.org.in
M.G.M.'s Jawaharlal Nehru Engineering College| Aurangabad,Mahatma Gandhi Mission's Jawaharlal Nehru Engg. College Campus| N-6| CIDCO,Aurangabad,Maharashtra,2482893//2481434,jnec@jnec.ac.in,www.jnec.org
Mahatma Basaweshwar Education Society's College of Engineering| Ambejogai,Ambejogai| Beed,Beed,Maharashtra,247262//2488882,khadakbhavibi@gmail.com,www.coea.ac.in
Peoples Education Society's College of Engineering| Aurangabad,Nagasen Vana| Near Panchakki| University Rd.| Aurangabad,Aurangabad,Maharashtra,2403017//2403001,principal@pescoe.ac.in,www.pescoe.ac.in
Hi-Tech Institute of Technology| Aurangabad,P-119| Bajajnagar| Aurangabad,Aurangabad,Maharashtra,2553496//2552240,principal@hitechengg.edu.in,www.hitechengg.edu.in
Aditya Engineering College | Beed,Telgaon Road| Beed Tal.& Dist. Beed,Beed,Maharashtra,227038//,principal.aditya@gmail.com,www.adityaeducation.org.in
Nagnathappa Halge Engineering  College| Parli| Beed,At Brahmwadi | Post Tokwadi| Parli-Beed State Highway| Parli Vaijnath Dist. Beed,Beed,Maharashtra,224334//224334,nhce1@hotmail.com,www.nhce.in
Matsyodari Shikshan Sansatha's College of Engineering and Technology| Jalna,Jalna-Aurangabad Road| Nagewadi| Jalna,Jalna,Maharashtra,202533//202533,msscetjalna@gmail.com,www.msscetjalna.org
Shri Sai Samajik Vikas Santha's Shri Sai Colllege of Engineering| Paddari Village Tal. & Dist. Aurangabad,Gut No. 80| Paddari Village|Near Beed bypass|via Deolai|Near Sai Mandir| Tal. & Dist. Aurangabad,Aurangabad,Maharashtra,6453732//6517388,appoint01@gmail.com,www.saiengineeringcollege.in
Maharashtra Education Society's Maharashtra Udayagiri Institute of Management & Technology| Somnathpur,Vill. Somnathpur| Tal. Udgir. Dist. Latur,Latur,Maharashtra,256152//257722,principalmuimt@gmail.com,www.muec.ac.in
Geetai Charitable Trust's Khurana Sawant Institute of Engineering & Technology| Balsond| Hingoli.,Balsond| Tal.& Dist. Hingoli,Hingoli,Maharashtra,290281//290282,ksiet_hingoli@yahoo.co.in,www.ksiet.org
Adarsh Shikshan Prasarak Mandal's K. T. Patil College of Engineering and Technology| Osmanabad,Keshav Nagar| Jadahavwadi Road| Osmanabad.Tal.  & Dist. Osmanabad,Osmanabad,Maharashtra,2293200//2293099,ktpcoeo@gmail.com,www.ktpcoe.org.in
G.S. Mandals Marathwada Institute of Technology (Arch.)| Aurangabad,PB 327|Satara Road| Aurangabad,Aurangabad,Maharashtra,2375111//2375111,info@mit.asia,www.mit.asia
Javaharlal Nehru Institute of Education Science & Technological Research| Mahatma Gandhi College of Architecture| Vasara,Latur Road| Nanded,Nanded,Maharashtra,//,,
Gramodyogik Shikshan Mandal's Marathwada Institute Of Technology| Rotegaon| Vaijapur| Dist. Aurangabad.,Rotegaon| Post Box No. 327| Taluka| Vaijapur|Satara Village Road Dist. Aurangabad 431028,Aurangabad,Maharashtra,204035//204035,munish.sharma@mit.asia,www.mit.asia
Shree Bharavnath Nisarga Mandal| Diploma in Engineering and Technology| Gevrai Tanda| Aurangabad,Gevrai Tanda| Paithan Road| Taluka & Dist. Aurangabad.  431001,Aurangabad,Maharashtra,2480451//6616401,principalsbnm@rediffmail.com,www.sbnmpoly.org
Vinayakrao Patil Shikshan Prasarak Mandal| Institute Of Engineering & Technology Kannad,Kannad| Dist Aurangabad,Aurangabad,Maharashtra,220588//220588,1157principal@msbte.com,www.ietkannad.org
Shree Dhaneshwari Manav Vikas Mandal Diploma In Engineering And Technology Institute| Hatta| Tal. Basmat| Hingoli,Hatta| Taluka Vasamat| Dist. Hingoli,Hingoli,Maharashtra,22454//244257,1006principal@msbte.com,www.sdmvmspolyhatta.in
Dharati Janseva Pratishthan| Diploma In Engineering & Technology Institute| Jalna,Rohanwadi| Revgaon Raod| Tq.Dist.Jalna,Jalna,Maharashtra,02482223//8888651267,1093principal@msbte.com,www.djppolytech.org
Education Society| Kalawatibai College Of Engineering & Technology (Polytechnic)| Naigaon| Nanded,Lalwandi Road| Tal. Naigaon (Kh)| Nanded  431709,Nanded,Maharashtra,263399//263399,1155principal@msbte.com,www.kalawatibaipoly.com
Sahayog Sevabhai Sanstha| Indira Institute Of Technology(Polytechnic)| Nanded.,Gat No. 18 & 22 Vishnupuri| Nanded 431606,Nanded,Maharashtra,229155//229155,indirapoly@gmail.com,www.sahayogcampus.ac.in
Gramodyogik Shikshan Mandal's Marathwada Institute of Technology| Aurangabad,P.B.-327| Satara Village Rd.|  off Beed By-Pass Highway Aurangabad | 431005,Aurangabad,Maharashtra,2375333//2375333,sunil.deshmukh@mit.asia,www.mit.asia
Aurangabad College of Engineering|  Naygaon Savangi| Aurangabad,GatT No 52| TUljapur Shivar| Naygoan Savangi| Aurangabad,Aurangabad,Maharashtra,2485686//,lokhande3000@gmail.com,www.aurangabadengg.com
Marathwada Shikshan Prasarak Mandal's Shri Shivaji Institute of Engineering and Management Studies| Parbhani,Vasmat Road|Parbhani,Parbhani,Maharashtra,234109//234109,director.ssiems@yahoo.com,www.mspgroup.org
Balaghat Engineering College|Ruddha| Ahmedpur,Latur - Nanded Highway| Rudha| Ahmedpur| Taluka - Ahmedpur|Dist-Latur,Latur,Maharashtra,279033//,balaghat_eng@rediffmail.com,www.balaghatcollege.com
Ransamrat Kreeda Mandal's Rajarshi Shahu Institue of Technology|Parli Road Kallam| Dist. Osmanabad,Gat No 65-A/2| Parli Road Kallam| Dist. Osmanabad. 413507,Osmanabad,Maharashtra,263010//263011,rsit1489@gmail.com,www.shahuitkallam.org
Phoenix Foundation Sanstha's Phoenix Institute Of Technology|Lodga| Tal. Asua|Dist. Latur,At Post Lodga| Tq Asua|Dist. Latur  413512,Latur,Maharashtra,255786//,pitpoly@gmail.com,www.pitpoly.com
Ambarwadikar Institute of Hotel Management & Catering Technology Polytechnic| Deolai| Aurangabad,Gut No. 103| Deolai| Surya Lawns Campus| Beed | Aurangabad,Aurangabad,Maharashtra,2653155//2242044,ambarwadikar.hmct@gmail.com,www.ambarwadikartech.com
Baliram Patil Mission's S.N.Rai Institute of Engg. & Technology Shrikshtra | Mahur Dist Nanded.,Shrikshetra Mahur Tal. Mahur Dist Nanded.,Nanded,Maharashtra,268136//,1499principal@msbte.com,www.balirampatilmission.org
Anand Charitable Trusts| Diploma in Engineering & Technology| Murshadapur| Ashti| Dist. Beed,Murshadapur| Tq. Ashti| Dist. Beed.  414203,Beed,Maharashtra,282974//282974,acspoly.ashti@gmail.com,www.dietashti.org
Sevadas Shikshan Prasarak Mandal's Vasantrao Naik Instiute of Technology| Vasarni| Nanded,Gut No 24| Vasarni| Nanded. 431603,Nanded,Maharashtra,225375//225375,1506principal@msbte.com,www.sevadasspmnnd.org
Shri Sai Institute of Technology(Polytechnic)|Aurangabad,P-75 Behind Garware Palyster|MIDC |Chikalthana  Aurangabad | 431210,Aurangabad,Maharashtra,2470312//2470312,ssitpoly@gmail.com,www.ssit.org.in
Sai Institute of Engineering & Technology| Bilda| Aurangabad.,Survey No.170| Sai Nagar|Aurangabad Ajanta Road|Jalgaon Highway|Village Bilda|Tal. Phulambri|,Aurangabad,Maharashtra,2020555//2020555,sietaurangabad@gmail.com,www.sietaurangabad.com
International Centre of Excellence in Engineering & Management| Aurangabad.,Gut No.4|Opp.Bajaj Auto ltd. Infront of MIDC filtration plant|Aurangabad-Pune High way,Aurangabad,Maharashtra,2558123//,director@iceemabad.com,www.iceemabad.com
STMEI's Sandipani Technical Campus-Faculty of Engineering| Latur.,Gat No. 23| Kolpa Tq & Dist. Latur,Latur,Maharashtra,263546//,badgireudhav@gmail.com,www.vit.edu/latur
Maitree Foundation's Maitree Institute of Management & Technology| Bhatangali Tal.& Dist. Latur,Gut. No. 237| Bhatangali| Tq. & Dist. Latur.  413512,Latur,Maharashtra,254888//240430,mimlatur@rediffmail.com,www.mimlatur.com
V.J. Shinde College of Engineering| Osmanabad.,Gat No. 738| Waruda road| Osmanabad.,Osmanabad,Maharashtra,203205//203205,vjscoe2529@gmail.com,www.vjsengg.com
CSMSS Chh. Shahu College of Engineering| Aurangabad,Kanchanwadi| Paithan Road| Aurangabad.,Aurangabad,Maharashtra,6646371//6646370,shahuengg@gmail.com,www.csmssengg.org
D.B.Group of Instituions| School of Technology| At.Mahalangra| Tal.Chakur|Latur,Opp. LATUT-NANDED HIGHWAY|AT MAHALANGRA|TQ-CHAKUR|DIST-LATUR-412513,Latur,Maharashtra,259009//259008,dbimr@yahoo.com,www.dbgroup.org.in
Gramin College of Engineering| Vishnupuri| Nanded,Vishnupuri| Nanded| Nanded waghala| Nanded,Nanded,Maharashtra,229112//229900,graminenggnanded@gmail.com,www.graminenggnanded.org
Government College of Engineering| Chandrapur,Ballarsha Bypass Road|Chandrapur,Chandrapur,Maharashtra,230478//230299,gcoechandrapur@gmail.com,www.gcoec.ac.in
Laxminarayan Institute of Technology| Nagpur,L.I.T.Premises| Opposite Bharatnagar| Amravati Road| Nagpur,Nagpur,Maharashtra,2561107//2531659,rajumankar@gmail.com,www.litnagpur.in
Lady Amritbai Daga College for Women of Arts| Comm & Sci &  R.Purohit College of H.Sci & H. Sc. Technology| Nagpur,Department of HMCT| L.A.D.  & Smt. R.P.College for Women|  Seminary hills| Shankar Nagar|Nagpur,Nagpur,Maharashtra,2512336//2246623,lad_hmct@yahoo.com,hmct.ladcollege.in/
Government Institute of Hotel Management & Catering Technology| Nagpur,Govt. Polytechnic Campus| Nagpur | 440001,Nagpur,Maharashtra,2544355//2542725,principahmct_ngp@hotmail.com,www.gihmctngp.org
Adv.V.R.Manohar Institute of Diploma in Medical Laboratory Technology| Nagpur,Electronic Zone|M.I.D.C Nildoh Nagpur,Nagpur,Maharashtra,242304//,principal_dmltnys@yahoo.com,www.dmltngp.com
Government College of Engineering| Nagpur,Sector-27| Mihan Rehabilitation Colony| Khapari| Nagpur,Nagpur,Maharashtra,202012//202011,office.gcoenagpur@dtemaharashtra.gov.in,www.gcoen.ac.in
Shree Shivaji Education Society| Dr. Panjabrao Deshmukh Institute of Management Technology & Research| Nagpur,Dept. of Dhanwate National College| Congress Nagar Opp. Ajni Rly Station  Nagpur | 440012,Nagpur,Maharashtra,2445356//2522759,pdimtrdnc@gmail.com,www.pdimtr.ac.in
Kavi Kulguru Institute of Technology & Science| Ramtek,K. K. Nagar| Ramtek| Nagpur - 441 106,Nagpur,Maharashtra,255309//255047,principal@kits.edu,www.kits.edu
GES Department Of Management Technology N.M.D.PG College Of Arts| Commerce| Law & Management| Gondia,Ramnagar| Gondia   441614,Gondia,Maharashtra,252682//252634,dmtr.nmd@rediffmail.com,www.nmdcgmmba.co.in
Shri Ramdeobaba College of Engineering and Management| Nagpur,Gittikhadan| Katola  Road| Nagpur,Nagpur,Maharashtra,2580011//2583239,deanadmissions@rknec.edu,www.rknec.edu
Ankush Shikshan Sanstha's G.H.Raisoni College of Engineering| Nagpur,C.R.P.F. Gate No.3| Digdoh Hills| Hingna Road| Nagpur,Nagpur,Maharashtra,9604787184//9881713575,principal.ghrce@raisoni.net,www.ghrce.raisoni.net
G.H. Raisoni Institute of Information Technology,37-39/1| SHRADDHA PART| OFF HINGNA-WADI LINK ROAD| MIDC| NAGPUR| MAHARASHTRa 440028,Nagpur,Maharashtra,236102//236102,ghriitnag@raisoni.net,ghriit.raisoni.net
Bapurao Deshmukh College of Engineering| Sevagram,P.O.Sevagram|Dist-Wardha,Wardha,Maharashtra,284378//284030,princi.bdces@gmail.com,www.bdce.edu.in
Lokmanya Tilak Jankalyan Shikshan Sanstha| Priyadarshani College of Engineering| Nagpur,Near CRPF Campus| Hingna Road| Nagpur,Nagpur,Maharashtra,244381//244285,mpsingh3712@rediffmail.com,www.pcenagpur.edu.in
Ranibai Agnihotri Institute of Computer Information Technology| Wardha,Bapuji Wadi| Ramnagar Wardha | 442001,Wardha,Maharashtra,661111//,raicitprincipal@gmail.com,www.agnihotrigroup.org
Sanmarg Shikshan Sanstha's Smt. Radhikatai Pandav College of Engineering| Nagpur,Near Dighori Naka| Umrer Road| Bhadura| Nagpur,Nagpur,Maharashtra,663603//663603,admin@srpce.ac.in,www.srpce.ac.in
Guru Nanak Institute of Engineering & Technology|Kalmeshwar| Nagpur,Khasara No-94|95&164/1|Mauza Dahegaon|Opposite IOC Prtrol Pump|Kalmeshwar| Nagpur,Nagpur,Maharashtra,661400//661400,gnietnagpur@gmail.com,www.gniet.ac.in
Amar Seva Mandal's Shree Govindrao Vanjari College of Engineering &  Technology| Nagpur,Survey No. 148/149| Salai Godhani| Near Chikna Village| Hudakeshwar Road| Nagpur,Nagpur,Maharashtra,2742308//2742308,gwcet@rediffmail.com,www.gwcet.ac.in
Lokmanya Tilak Jankalyan Shikshan Sastha| Priyadarshini J. L. College Of Engineering| Nagpur,846| Nandanvan| Nagpur,Nagpur,Maharashtra,2711505//2712490,principaljlcce@gmail.com,www.jlcce.ltjss.net
Sir Shantilal Badjate Charitable Trust's S. B. Jain Institute of technology| Management & Research| Nagpur,Behind Asarambapu Ashram Village| Yerala| Katol Road| Nagpur,Nagpur,Maharashtra,2667777//2667666,ceo@sbjit.edu.in,www.sbjit.edu.in
Jaidev Education Society| J D College of Engineering and Management| Nagpur,At Khandala| Post Vaini Katol Road| Nagpur,Nagpur,Maharashtra,2023003//2682619,principal@jdcoem.ac.in,www.jdcoem.ac.in
Samridhi Sarwajanik Charitable Trust| Jhulelal Institute of Technology| Nagpur,Kh. No.72| 68/1| 68/2| 68/3| Lonara Dist. Nagpur,Nagpur,Maharashtra,2668233//2668235,admin@jit.org.in,www.jit.org.in
Shriram Gram Vikas Shikshan Sanstha| Vilasrao Deshmukh College of Engineering and Technology| Nagpur,Sr. No.121| 262| At Mouza| Taluka Mauda| Bhandara Road| Nagpur,Nagpur,Maharashtra,281254//,vdcoe_ngp@hotmail.com,www.vdcet.com
Ankush Shikshan Sanstha's G. H. Raisoni Institute of Engineering & Technology| Nagpur,MIDC| Near Facor| Higna Wadi Road| Nagpur,Nagpur,Maharashtra,234501//234501,ghrietn@raisoni.net,www.ghrietn.raisoni.net
Sanmarg Shikshan Sanstha| Mandukarrao Pandav College of Engineering| Bhandara,Sr. No.183/1| Billewada| Taluka & Dist Bhandara,Bhandara,Maharashtra,71843094//,mpce@rediffmail.com,WWW.MPCE.ORG.IN
Shri. Sai Shikshan Sanstha| Nagpur Institute of Technology| Nagpur,Sr. No.13/2| Mahurzari| Katol Road| Taluka & Dist Nagpur,Nagpur,Maharashtra,9881711787//9881711787,registrar@nit.edu.in,www.nit.edu.in
Wainganga College of Engineering and Management| Dongargaon| Nagpur,Dongargoan| Near Gumgaon Railway Station| Post - Gumgaon| Wardha road| Nagpur,Nagpur,Maharashtra,203728//202007,wcem4145@gmail.com,www.wcem.in
KDK College of Engineering| Umrer| Nagpur,State Highway No.9| Opp. W. C. L.| Umrer Project| Umrer| Nagpur,Nagpur,Maharashtra,247317//247823,dratulcwaghmare@rediffmail.com,www.ucoe.org.in
K.D.K. College of Engineering| Nagpur,Great Nag Road| Nandanvan| Nagpur,Nagpur,Maharashtra,2710030//2711400,kdkce4147@gmail.com,www.kdkce.edu.in
Vidarbha Bahu-Uddeshiya Shikshan Sanstha's Tulshiramji Gaikwad Patil College of Engineering & Technology| Nagpur,Kh. No. 8/1| Mohgaon|Wardha Road|Nagpur,Nagpur,Maharashtra,645410//6648252,vidarbhabuss@yahoo.co.in,www.tgpcet.com
Center for Advance Education|Institute of Management Technology| Katol Road| Nagpur,35 Km Milestone| Mouza Dorli| Katol Road| Nagpur,Nagpur,Maharashtra,//,,www.itm.edu
Rajiv Gandhi College of Engineering Research & Technology  Chandrapur,Ballarpur Road Babupeth Dist. Chandrapur,Chandrapur,Maharashtra,225168//225286,principal@rcert.ac.in,www.rcert.ac.in
Gondia Education Society's Manoharbhai Patel Institute of Engineering and Technology| Gondia,Kudwa|  Dist. Gondia,Gondia,Maharashtra,252033//252158,principal_miet@rediffmail.com,www.mietgondia.in
Yeshwantrao Chavan College of Engineering|Wanadongri| Nagpur,Hingna Road| Wanadongri| Nagpur  441110,Nagpur,Maharashtra,242919//329250,principal@ycce.edu,www.ycce.edu
Lokmanya Tilak Jankalyan Shikshan Sanstha's | Priyadarshini Institute of Engineering and Technology| Nagpur,Mouza Shivangaon | Khasara| 1/1A| 1909/12C| Near CRPF Campus| Hingna Road| Nagpur,Nagpur,Maharashtra,244463//244470,viveknanoti@gmail.com,www.piet.ltjss.net
Anjuman College of Engineering & Technology| Nagpur,Mangalwari Bazar Road| Sadar| Nagpur,Nagpur,Maharashtra,6604502//2583559,eng_acet@rediffmail.com,www.anjumanengg.edu.in
ST. Vincent Pallotti College of Engineering & Technology| Nagpur,Gavsi Manapur| Wardha Road|  Nagpur,Nagpur,Maharashtra,275951//,info@stvincentngp.edu.in,www.stvincentngp.edu.in
JMSS Shri Shankarprasad Agnihotri College of Engineering| Wardha,Agnihotri College Campus| Bapujiwadi| Ramnagar| Wardha,Wardha,Maharashtra,250007//232552,agisspace2007@gmail.com,www.sspace.ac.in
Priyadarshini Bhagwati  College of Engineering| Harpur Nagar| Umred Road|Nagpur,Harpur Nagar| Umrer Road| Nagpur,Nagpur,Maharashtra,2710282//2710281,principalpbcoe@gmail.com,www.bcce.ltjss.net
Rajiv Gandhi College of Engineering & Research| Hingna Road| Nagpur,Wanadongari| Hingna Road| Nagpur,Nagpur,Maharashtra,9028049155//,rgcerngp@gmail.com,www.rgcer.edu.in
Lokmanya Tilak Jankalyan Shiksan Sanstha| Priyadarshini Indira Gandhi College of Engineering| Nagpur,Opp. Lata Mangeshkar Hospital| Hingana Road| Nagpur,Nagpur,Maharashtra,232545//232545,pigce.principal@gmail.com,www.pice.ltjss.net
KDKs Shrimati Rajashri Mulak College of Engineering for Womens| Nagpur,KDK College Campus| Great Nag Road| Nandanvan| Nagpur,Nagpur,Maharashtra,2714750//2716411,principal_srmcew@yahoo.com,www.srmcew.edu.in
Sarvasiddhanta Education Soc's Nuva College of Engineering and Technology| Nagpur,146|149|150 & 153|Nagpur Katol Highway| Khapri(Kothe)|Tal.Kalmeshwar| Nagpur,Nagpur,Maharashtra,661105//0,infonuva@gmail.com,www.nuvaedu.com
Om Arunodaya Bahuuddeshiya Khadi Garmudyog Vikas Sanstha's Om College of Engineering| Inzapur| Wardha(Closed A.Y. 2018-19),Lloyd Steel Industrial Limited| Hinganghat Road|  Inzapur| Wardha,Wardha,Maharashtra,285252//,glpworld@rediffmail.com,www.omcoe.com
Shree Bapuraoji Deshmukh Foundation| Suresh Deshmukh College of Engineering| Selukate| Wardha,Selukate| Survey No. 161| Mauje Selu Kate| Dist. Wardha,Wardha,Maharashtra,282533//282333,princi.sdces@gmail.com,www.sdce.edu.in
Datta Meghe Institute of Medical Science's Datta Meghe Institute of Engineering & Technology & Research| Savangi (Meghe),Wardha Yavatmal Road Wardha,Wardha,Maharashtra,287894//,principal_dmietr@yahoo.com,www.dmietr.edu.in
Dr. Babasaheb Ambedkar College of Engineering and Research| Wanadongri| Nagpur,Wanhadongri| Hingna Road| Nagpur,Nagpur,Maharashtra,242406//242406,svssngp@gmail.com,www.svsscer.edu.in
Krushi Jivan Vikas Pratishthan| Ballarpur Institute of Technology| Mouza Bamni,Bamani| Rajapura Road| Tal. Ballarpur. Chandrapur,Chandrapur,Maharashtra,7720079166//,bit.ballarpur@gmail.com,www.bitedu.co.in
Sardar Patel Memorial Society's Namdevrao Poreddiwar College of Engineering and Technology| Gadchiroli,At Mouza Boldi| Dhanopra Road| Tal & Dist. Gadchiroli,Gadchiroli,Maharashtra,237861//237862,principal.ncet@gmail.com,www.npcet.ac.in
M.D. Yergude Memorial Shikshan Prasarak Mandal's Shri Sai College of Engineering & Technology| Badravati,Near Village Lonara| Nagpur Road| Badravati Dist. Chandrapur,Chandrapur,Maharashtra,230723//230723,mdyergude@yahoo.com,www.sscet.in
Maitraya Education Society| Nagarjuna Institute of Engineering Technology & Management| Nagpur,Khasara No. 27| 32-B| At Satnavari| Amravati Road| Nagpur,Nagpur,Maharashtra,322212//,maitrey.ngp@gmail.com,www.nietm.in
K.D.M. Education Society| Vidharbha Institute of Technology|Umred Road |Nagpur,Gram UTI| Umred Road| Nagpur,Nagpur,Maharashtra,//,kdmsociety@gmail.com,www.vitnagpur.com
Nav Disha Education Soc| Acharya Vinoba Bhave Institute of Technology |Mauza-Pawnar|Wardha,At Post Pavanar| Dist. Wardha,Wardha,Maharashtra,93733950//93733950,avbit2008@rediffmail.com,www.abvit.org
Vidharbha Bahu uddeshiya Shikshan Sanstha's Abha Gaikwad – Patil College of Engineering| Nagpur,Khasara No.8/1| Mohgaon| Wardha Road| Tal. & Dist. Nagpur,Nagpur,Maharashtra,645412//6648252,vidarbhabuss@yahoo.co.in,www.agpce.com
Gurunanak Educational Society's Gurunanak Institute of Technology| Nagpur,Dahegaon| Kalmeshwar Road| Nagpur,Nagpur,Maharashtra,661450//2234333,gniemnagpur@gmail.com,www.gniem.ac.in
Jai Mahakali Shikshan Sanstha| Agnihotri College of Engineering| Sindhi(Meghe),Nagthana Road| Near Bypass Highway Road| Sindhi (Meghe). Wardha,Wardha,Maharashtra,250152//240527,ajayshelke.000@rediffmail.com,www.agnihotrigroup.org
Yugantar Education Society's Shri Balasaheb Tirpude College of Hotel Management & Catering Technology|Nagpur,Shri Nasikraoji Tirpude Marg|Civil Lines |Sadar| Nagpur,Nagpur,Maharashtra,2550695//2550032,tirpudehmct@gmail.com,www.tirpudehmct.org
Jai Mahakali Shikshan Sanstha's Agnihotri School of Technology| Ramnagar| Wardha,Ramnagar| Wardha | 442001,Wardha,Maharashtra,252888//252888,ast695@rediffmail.com,www.aginihotrigroup.org
Late Madhukarrao Deshmukh Education Soceity's Avdhoot Diploma College Of Engineering| Mouza| Bhojapur,Mauza Bhojapur| P.H. No.115| Sur. No.6| Kuhi| Nagpur 400001,Nagpur,Maharashtra,220021//220021,avdootpoly@rediffmal.com,lmdes.org.in
Krushna Sahayogi Tantra Shikshan Sanstha| Chatrapati Shivaji Institute Of Technology| Deori| Gondia,Shivaji Campus|At.Post.Th.Deori(Chichgadh Road) Gondia | 441901,Gondia,Maharashtra,225631//225631,kstsscsit@rediffmail.com,www.kstsscsit.org
Sikh Education Society's Gurunanak Technical Institute of Pharmacy| Nagpur,Mauza Nari| Near Dixit Nagar| Kh. No. 81/1| C.P. Foundry|Pili Nadi Nagpur | 440026,Nagpur,Maharashtra,2633854//2242017,gnti1983@yahoo.com,www.gntinagpur
V M Institute of Engineering and Technology| Dongargaon| Nagpur,Dhutte village | Near Dongargaon| Wardha Road| Nagpur,Nagpur,Maharashtra,6650243//645689,vmietnag@gmail.com,www.vmit.org.in
ITM College of Engineering| Nagpur,Near Madhi Mandir| Ghorpad Road| Kamptee| Dist-Nagpur,Nagpur,Maharashtra,7109270273//9881713211,prasadv@itmnagpur.ac.in,www.itmnagpur.ac.in
Gondia Education Society's Manoharbhai Patel Institute Of Engineering & Technology| Shahapur| Bhandara,N.H.6 Shahapur|Bhandara,Bhandara,Maharashtra,9975591177//7709967710,principalmietb@rediffmail.com,www.mietbhandara.ac.in
Vidya Niketan Institute of Engineering and Technology| Nagpur,At. Post : Gondkheri. Tah.: Kalmeshwar| Dist.: Nagpur,Nagpur,Maharashtra,277088//277088,principal@vniet.org,www.vniet.org
Cummins College of Engineering For Women| Sukhali (Gupchup)| Tal. Hingna Hingna Nagpur,Mouje Sukhali (Gupchup)| Tal. Hingna  Dist. Nagpur,Nagpur,Maharashtra,96576670//94230551,office@cumminscollege.edu.in,www.cumminscollege.edu.in
G.H.Raisoni Academy of Engineering & Technology| Nagpur,Shraddha Park| Off Hingna-Wadi Link Road| Nagpur,Nagpur,Maharashtra,237688//237688,ghraetnag@raisoni.net,www.ghraet.raisoni.net
Indian Instiutute of Fire Engineering| Nagpur,Makardhokda Katol Road|Near VeerChakra Colony| Nagpur  440013,Nagpur,Maharashtra,2574129//2570733,fireinstitute96@gmail.com,www.firecollegenagpur.in
Maharashtra Shikshan Prasarak Mandals|Sommaya Diploma In Engineering| Wadgaon Dist Chandrapur,Wadgaon Dist Chandrapur   442402,Chandrapur,Maharashtra,271232//271252,somayyamspm@gmail.com,www.somayyapolytechnic.com
Gramin Vikas Multipurpose Education Society|Prabhat Diploma College of Engineering| Mouza Rui| Ta- Bramhapuri| Chandrapur,Gut No. 90| 102| Mouza Rui| Ta- Bramhapuri| Dist-Chandrapur,Chandrapur,Maharashtra,230168//,prabhatpolytechnic@gmail.com,www.gvmes.org.in
Navneet Bahuuddeshya Sanstha| Kinkar Institute Of Technology|Seloo|Dist.Wardha,Rehnki Road|Seloo|Dist.Wardha,Wardha,Maharashtra,220240//220240,principal.kit4612@gmail.com,www.kitseloo.org
Suryodaya College of Engineering & Technology| Nagpur,Survey No. 117/1 & 117/3 A| Vihirgaon| Nagpur,Nagpur,Maharashtra,276282//276282,scetngp@gmail.com,www.scetngp.com
Maharashtra College of Engineering| Betada| Brahmapuri,Choughan Phata| Armori Road| (Betada)| Tal.Bramhapuri| Dist.Chandrapur.,Chandrapur,Maharashtra,//,parag.pise1999@gmail.com,www.yees.edu.cin
R.V. Parankar College of Engineering & Technology| Arvi| Dist Wardha,Survey No. 11611| Mauza - Sarangpuri| Talao Road| Darankikar Wadi| Taluka Arvi| Dist Wardha.,Wardha,Maharashtra,//,raviparnkar@gmail.com,
Bajaj Institute of Technology| Wardha,Arvi Road| in Front of Ramkrishna Bajaj Agriculture College| Pipri| Wardha,Wardha,Maharashtra,255770//9823382851,shikshamandal@gmail.com,www.bit.shikshamandal.org
University Institute  of Chemical Technology| North Maharashtra University| Jalgaon,P.B.No. 80| Umavinagar| Jalgaon,Jalgaon,Maharashtra,2257441//2258181,jbnaik@nmu.ac.in,www.nmu.ac.in
Government College of Engineering| Jalgaon,Opp.Govt  I.T. I. National Highway No-6| Jalgaon,Jalgaon,Maharashtra,2281522//2281522,princoej@rediffmail.com,www.gcoej.ac.in
Mahatma Gandhi Taluka Shikshan Mandal's Sharadchandrika S. Patil Inst of Technology| Chopda,CHOPDA Jalgaon | 425107,Jalgaon,Maharashtra,220500//220700,dpharmacychopda@gmail.com,
Shri Shivaji Vidya Prasarak Sanstha's Late Bapusaheb Shivaji Rao Deore College of Engineering|Dhule,SSVP Sansthas B S Deore College of Engineering |M.B.A.Department| Dhule,Dhule,Maharashtra,272713//284300,princi.ssvps@gmail.com,www.ssvpsengg.ac.in
Shramsadhana Bombay Trust| College of Engineering & Technology| Jalgaon,Bambori| Dharangaon|  Jalgaon,Jalgaon,Maharashtra,2258393//2252989,sscoetjal@gmail.com,www.sscoetjalgaon.ac.in
G.H. Raisoni Institute of Engineering and Management| Jalgaon,Gat No. 57/1| Shirsoli Road| At. Post- Mohadi Tal. & Dist. Jalgaon|,Jalgaon,Maharashtra,2264881//2264882,prabhakar.bhat@raisoni.net,www.raisoni.net
K. C. E. Societys College of Engineering and Information Technology| Jalgaon,C.S. No. 7480 and 7323| Behind D.I.C.| N.H.No.6|  IMR Campus| Jilha Path| Jalgaon,Jalgaon,Maharashtra,2242025//2242026,coeit.inquiry@gmail.com,www.coeit.kces.in
Shri Gulabrao Deokar College of Engineering| Jalgaon,Gat No. 56|  P.B. NO. 113| Shirsoli Road| Jalgaon,Jalgaon,Maharashtra,2264871//2264873,principal@sgdcoejalgaon.org,www.sgdcoejalgaon.org
Nashik District Maratha Vidya Prasarak Samaj's Karmaveer Adv.Babaurao Ganpatrao Thakare College of Engineering| Nashik,Udoji Maratha Boarding Campus| Near Pumping Station| Gangapur Road| Nashik,Nashik,Maharashtra,2571439//7378497999,principal@kbtcoe.org,www.kbtcoe.org
Sandip Foundation| Sandip Institute of Technology and Research Centre| Mahiravani| Nashik,At Post mahiravani| Trimbak Road Dist Nashik,Nashik,Maharashtra,222551//222551,principal@sitrc.org,www.sandipfoundation.org
Nashik District Maratha Vidya Prasarak Samaj's Institute of Management Research & Technology| Nashik,M. V. P. Campus| Gangapur Road| Shivaji Nagar| Nasik  422002,Nashik,Maharashtra,2571650//2571650,imrt_mba@yahoo.co.in,www.imrt.ac.in
K. K. Wagh Institute of Engineering Education and Research| Nashik,Hirabai Haridas Vidyanagari| Amrut Dham|  Panchawati| Nashik,Nashik,Maharashtra,2512876//,kkwieer@kkwagh.edu.in,www.engg.kkwagh.edu.in
Jagadamba Education Soc. Nashik's S.N.D. College of Engineering & Reserch| Babulgaon,At. Post Babulgaon| Tal Yeola| Nashik,Nashik,Maharashtra,225012//225011,sndcoe.principal@gmail.com,www.sndcoe.ac.in
Pravara Rural Education Society's Sir Visvesvaraya Institute of Technology| Chincholi Dist. Nashik,At / Po Chincholi| Tal. Sinnar| Nashik,Nashik,Maharashtra,271278//271261,svit.nashik@pravara.in,www.svitnashik.in
Brahma Valley College of Engineering & Research| Trimbakeshwar| Nashik,Anjaneri Village| Trimbakeshwar| Dist.Nashik 422103,Nashik,Maharashtra,220202//2464691,princi.bvcoe@gmail.com,www.brahmavalley.com
Pravara Rural College of Engineering| Loni| Pravaranagar| Ahmednagar.,A/P.Loni| Tal.Rahata  Dist.Ahmednagar,Ahmednagar,Maharashtra,273204//273204,principal@pravaraengg.org.in,www.pravaraengg.org.in
MET Bhujbal Knowledge City MET League's Engineering College| Adgaon| Nashik.,Bhujbal Knowledge City | MET's Institute Of Engineering| Adgaon| Nashik,Nashik,Maharashtra,2303515//,vpwani@gmail.com,www.metbhujbalknowledgecity.ac.in
Sanjivani Rural Education Society's Sanjivani College of Engineering| Kopargaon,Sahajanand Nagar| Po : Shingnapur| Tal : Kopargaon| Dist. Ahmednagar,Ahmednagar,Maharashtra,9130191301//222469,principalcoe@sanjivani.org.in,www.sanjivanicoe.org.in
Dr. Vithalrao Vikhe Patil College of Engineering| Ahmednagar,vadgaon Gupta| Vilad Ghat| P.O.-MIDC| Ahmednagar,Ahmednagar,Maharashtra,2777296//2779496,prin_coea@yahoo.com,www.enggnagar.com
Amrutvahini Sheti & Shikshan Vikas Sanstha's Amrutvahini College of Engineering| Sangamner,P.O.: Sangamner Sakhar Karkhana| Tal : Sangamner| Dist. Ahmednagar,Ahmednagar,Maharashtra,259096//259148,principal@avcoe.org,www.avcoe.org
P.S.G.V.P. Mandal's D.N. Patel College of Engineering| Shahada| Dist. Nandurbar,Poojya Sane Guruji Vidya Prasarak Mandal's| D.N. Patel College of Engineering| Shahada| Dist. Nandurbar,Nandurbar,Maharashtra,229649//229649,principal@coeshahada.ac.in,www.coeshahada.ac.in
Sanjay Education Society's College of Engineering| Navalnagar,Navalnagar| Tal & Dist. Dhule,Dhule,Maharashtra,260238//260245,coenavalnagar@gmail.com,www.sescoe.org
T.M.E. Society's J.T.Mahajan College of Engineering| Faizpur,Jivram Nagar| |Nhavi Marg| PO:Faizpur(MSSK)|  Dist. Jalgaon,Jalgaon,Maharashtra,248256//248179,jtmcoef@rediffmail.com,www.jtmcoef.ac.in
Nagaon  Education Society's Gangamai College of Engineering| Nagaon| Tal Dist Dhule,Nagaon At Post. Nagaon| Tal&Dist.  Dhule,Dhule,Maharashtra,243170//243000,nagaonengg@rediffmail.com,www.gangamaiengg.org
Hindi Seva Mandal's Shri Sant Gadgebaba College of Engineering & Technology| Bhusawal,Near Z.T.C Bhusawal| Dist. Jalgaon,Jalgaon,Maharashtra,221719//221719,rps125@rediffmail.com,www.ssgbcoet.com
Godavari Foundation's Godavari College Of Engineering|  Jalgaon,Plot No.51| Dr. Ulhas Patil Nagar| Additional MIDC| Bhusawal Road| N.H.No.6| Jalgaon,Jalgaon,Maharashtra,2212999//2213500,gcoe2008@gmail.com,engg.godavarifoundation.org
R. C. Patel Institute of Technology| Shirpur,Near Nimzari Naka| Shirpur Dist. Dhule,Dhule,Maharashtra,259600//259600,registrar@rcpit.ac.in,www.rcpit.ac.in
SNJB's Late Sau. Kantabai Bhavarlalji Jain College of Engineering|  (Jain Gurukul)| Neminagar|Chandwad|(Nashik),Jain Gurukul| Neminagar| Chandwad Dist.  Nashik,Nashik,Maharashtra,205527//253752,principalcoe@snjb.org,www.snjb.org
G. H. Raisoni College of Engineering and Management| Ahmednagar,G.No.1030| At/Post-Chas|Nagar-Pune Road| Ahmednagar,Ahmednagar,Maharashtra,2570123//2570123,ghrcemahm@raisoni.net,ghrcemahm.raisoni.net
Matoshri College of Engineering and Research Centre| Eklahare| Nashik,At Post Eklahare| Taluka & District Nashik,Nashik,Maharashtra,2406600//2406600,gkkharate@rediffmail.com,www.mcoerc.org
Vishwabharati Academy's College of Engineering| Ahmednagar,Sarola Baddi |Jamkhed Road |  Ahmednagar,Ahmednagar,Maharashtra,2660033//2660033,principal_vacoea@yahoo.com,www.vacoea.com
Gokhale Education Society's| R.H. Sapat College of Engineering| Management Studies and Research| Nashik,Vidyanagar| College Road| Nashik 422 005,Nashik,Maharashtra,2311842//,principal@ges-coengg.org,www.ges-coengg.org
Kalyani Charitable Trust| Late Gambhirrao Natuba Sapkal College of Engineering| Anjaneri| Trimbakeshwar Road| Nashik,Sapkal Knowldege Hub|Kalyani Hills| Anjaneri- Wadholi| Tal. Trimbak| Nashik,Nashik,Maharashtra,220175//220175,gns_engineering@sapkalknowledgehub.org,www.sapkalknowledgehub.org
Shri Chhatrapati Shivaji College of Engineering| (Rahuri Factory)| Tal.Rahuri| Dist.Ahmednagar,Shree Shivaji Nagar (Rahuri Factory)| Tal. Rahuri|  Dist. Ahmednagar,Ahmednagar,Maharashtra,251200//9156532111,scsc_eng@yahoo.in,www.scscoe.org
Amruta Vaishnavi Education & Welfare Trust's Shatabdi Institute of Engineering & Research| Agaskhind Tal. Sinnar,At- Agaskhind| Post Shenit (Via Deolali Camp-Bhagur)| Tal. Sinnar  Dist. Nashik,Nashik,Maharashtra,304203//,siermainoffice@gmail.com,www.sier.org.in
A.J.M.V.P.S. Institute of Hotel Management & Catering Technology College| Ahmednagar,Lal Taki Road| Near Law College| Ahmednagar,Ahmednagar,Maharashtra,2326778//2326778,ihmctajmvps@gmail.com,www.ihmct.in
Mahatama Gandhi Vidyamandir's College of Hotel Management & Catering Technology | Nashik,Mumbai-Agra Highway| Panchavati| Nashik,Nashik,Maharashtra,2628281//2628281,mgvihmct@rediffmail.com,www.mgv.edu/hmct
Pravara Rural Education Society's Padmashri Dr. Vittalrao Vikhe Patil Institute of Technology and Engineering Polytechnic |Pravaranagar,A/P Loni Bk.-413 713| Taluka Rahata|Ahmednagar  413736,Ahmednagar,Maharashtra,272151//273484,principal.polyloni@pravara.in,www.pravara.in
Mgts Mandal's Sharadchandrika Suresh Patil Institute Of Technology(Polytechnic)| Chopda,Yawal Road| Chopda Jalgaon | 425107,Jalgaon,Maharashtra,222100//222100,0061principal@msbte.com,www.polychopda.org
Shree Sant Muktabai Sansthan's Shri Sant Muktabai Institute of Technology| Jalgaon,B.J Nagar Pimparala Road| P.Box No 132| Jalgaon | 425001,Jalgaon,Maharashtra,2250500//2250776,smitcollegejalgaon@gmail.com,www.muktaieducation.org
Technical & Medical Education Society's J. T. Mahajan Polytechnic| Faizpur,Nhavimarg| Faizpur Jalgaon | 425524,Jalgaon,Maharashtra,248156//248556,jtmpfaiz@gmail.com,www.jtmpoly.ac.in
MET's Institute of Technology Polytechnic| Bhujbal Knowledge City| Adgaon Nashik,Bhujbal Knowledge City| Adgaon |Nashik 422003,Nashik,Maharashtra,2555825//2555825,principal_iot@bkc.met.edu,www.metbhujbalknowledgecity.ac.in
Kai. Vanjibaba Gramin Vikas Mandal| Shantidevi Chavhan Institute of Engineering & Technology| Chalisgaon,Survey No. 94/3/1 & 2| At Post Bhoras| Tal Chalisagtion|  Jalgaon | 424101,Jalgaon,Maharashtra,257356//257357,1004principal@msbte.com,www.sscpolycsn.com
Trimurti Shikshan Prasarak Mandal| Trimurti Institute Of Technology| Paladhi Bk| Jalgaon,Survey No.227/2| Paldhi Bk| Next To North Maharashtra University| Tal-Dhamangaon| Dist:Jalgaon,Jalgaon,Maharashtra,202292//202292,manojpatil9737@rediffmail.com,www.tspmjalgaon.com
The People Education Society's| Diploma College Of Enggineering & Technology|Jamkhed,Behind Police Line|Jamkhed Dist. Ahmednagar  413201,Ahmednagar,Maharashtra,221233//221222,pesdcet@gmail.com,www.pesjamkhed.com
Kisan Dnyanoday Mandal Gudhe's Dr. Uttamrao Mahajan Institute Of Engineering & Technology|Chalisgaon| Jalgaon,Gat No.140 2 A/1|140 2 A/2| Aurangabad Byepass Road| Chalisgaon Dist-Jalgaon 424101,Jalgaon,Maharashtra,202252//202252,1178principal@msbte.com,www.kdmgsinstitutions.co.in
Sanjivani Pratishthan's Institute Of Technology|Kurund,Gut No.22|23|28|At Kurund Post Ralegantherpal Tal.Parner Ahmednagar | 414306,Ahmednagar,Maharashtra,212631//,spitkurund@gmail.com,www.sanjivanipratisthan.com
Matoshri Education Soceity| Matoshri Institute Of Technology| Dhanore| Nashik,Dhanore Tal.Yeola| Dist.Nashik  423401,Nashik,Maharashtra,267561//267560,mityeola@gmail.com,www.mityeola.in
Mahatma Gandhi Vidyamandir's Institute Of Industrial & Pharmaceutical Technology| Nashik,MUMBAI-AGRA HIGHWAY| PANCHAVATI| NASHIK-422003,Nashik,Maharashtra,2511931//2628201,mgv.iipt@gmail.com,www.mgv.org.in
Shri.Sant Muktabai  Santha's Institute  of Technology| Jalgaon,B.J.Nagar| Pimprala Road| P.O.Box No.132| Jalgaon 425001 (M.S.),Jalgaon,Maharashtra,2250500//2250776,smitcollegejalgaon@gmail.com,www.muktaieducation.org
Mahatma Gandhi Vidya Mandir Institute Of  Hotel Management And Catering Technology|Nashik,Panchavati|Mumbai-Agra Road| Nashik 422003,Nashik,Maharashtra,2628283//2628281,mgvdhmct@gmail.com,www.mgv.org.in
Jamia Institute Of Engineering And Management Studies| Akkalkuwa,Molgi Road Near Amlibari Fata Akkalkuwa| Nandurbar,Nandurbar,Maharashtra,252524//,jamia.enggmba@yahoo.com,www.jiemsakk.com
Pune Vidyarthi Griha's College Of Engineering| Nashik,206| Dindori Road| Near Meri| Mhasrul| Nashik,Nashik,Maharashtra,6480036//6480003,pvgcoenashik@gmail.com,pvgcoenashik.org
Sandip Foundation's| Sandip Institute of Engineering & Management| Nashik,Trimbak Road| Mahiravani Nashik,Nashik,Maharashtra,222581//,principal@siem.org.in,www.sandipfoundation.org
Amruta Vaishnavi Education & Welfare Trust's Shatabdi Institute of Technology| Agastkhind| Tal Sinner,Srv. No. 2| At. Post Agastkhind| Tal Sinner Dist. Nashik 422502,Nashik,Maharashtra,02551304//02551304,1473principal@msbte.com,www.sitp.co.in
Seva Shikshan Prasarak Mandal| Dr. N. J. Paulbudhe Institute of Technology| Narayandoho Tal Nagar| Ahmednagar,Gate No. 479 At. Post Narayandoho Tal Nagar Dist. Ahmednagar,Ahmednagar,Maharashtra,2030626//2030627,polytech_paulbudhe@yahoo.in,sspm.online.org.in
Nashik Institute of Technology| Late Annasaheb Patil Polytechnic | Dindori Road Cannol road |MERI |Nashik,Srv. No|.155 / 1A Dindori Road Cannol road MERI Nashik,Nashik,Maharashtra,2024121//2629777,principal@nitnasik.com,www.nitnasik.com
Godavari Foundation|Dr.Varsha Patil Institute of Technology| Jalgaon,Jalgaon  425309,Jalgaon,Maharashtra,77200899//77200899,dvpit2010@gmail.com,www.dvpit.in
Adsul's Technical Campus| Chas Dist. Ahmednagar,At Post Chas| Tal.& Dist. Ahmednagar,Ahmednagar,Maharashtra,2570428//,adsulstechnicalcampus@gmail.com,www.adsulsgroup.edu.in
Shri. Jaykumar Rawal Institute of Technology| Dondaicha.,At Post Dondaicha| Dist. Dhule,Dhule,Maharashtra,0256244123//244123,5381jaytech@gmail.com,www.jaytech.co
Ahmednagar Jilha Maratha Vidya Prasarak Samajache| Shri. Chhatrapati Shivaji Maharaj College of Engineering| Nepti,Survey No. 162& 163| Nepti| Nagar Kalyan Road| Ahmednagar,Ahmednagar,Maharashtra,2568383//2568384,scsmcoe.anr@hotmail.com,www.scoea.org
Shree Saibaba Institute of Engineering| Research & Allied Sciences| Rahta.,At Post Rahta| Taluka Rahata| Dist. Ahmednagar,Ahmednagar,Maharashtra,204580//204578,shrisaibabaengg@gmail.com,www.shrisaibabaengg.org
Akole Taluka Education Society|s Technical Campus| Akole| Ahmednagar,Akole| Tal. Akole| Dist. Ahmednagar,Ahmednagar,Maharashtra,221123//95957577,akole2011@gmail.com,www.atestc.com
K.V.N. Naik S. P. Sansth's Loknete Gopinathji Munde Institute of Engineering Education & Research| Nashik.,Canada Corner| Sharanpur Road| Nashik,Nashik,Maharashtra,6641301//,kvnnaik@gmail.com,www.logmieer.com
Ashok Institute of Engineering & Technology(Polytechnic)| Shrirampur.,Ashok Nagar| Tal.Shrirampur| Dist. Ahmednagar.413717,Ahmednagar,Maharashtra,246021//246021,ashoktech_ashoknagar@yahoo.com,www.ashokpolytechnic.org
College of Engineering and Technology |North Maharashtra Knowledge City| Jalgaon,Gat No 166 Bambhori| Jalgaon,Jalgaon,Maharashtra,93714//02588202,nmkcjalgaon49@gmail.com,www.nmkcj.org
Sanghavi College of Engineering| Varvandi| Nashik.,Gut No. 166| Varvandi| Taluka Dindori| Dist. Nashik.,Nashik,Maharashtra,259091//,principal.scenashik@shreemahavir.org,www.shreemahavir.org
Piren's Insitute of Computer Technology| Loni,A/P Loni| Bk. Taluka Rahata| Dist. Ahmednagar,Ahmednagar,Maharashtra,02422473//,directorptc@yahoo.com,www.pirens.in
Jawahar Education Society's Institute of Technology| Management & Research| Nashik.,Survey No.48| Gowardhan| Gangapur Road| Nashik.,Nashik,Maharashtra,2970077//2970077,principaljitnashik@rediffmail.com,www.jitnashik.edu.in
Gurukul Education Society's Institute of Engineering & Technology| Nandgaon,S.No. 34/1B| & 34/2| At Phule Nagar| Post Nandgaon| Tal. & Dist. Nashik.,Nashik,Maharashtra,243488//243488,1607principal@msbte.com,www.gurukulpolytechnic.org
Vidya Niketan College of Engineering| Bota Sangamner,Gat No. 670| Vidya Nagari| Pune Nashik Road| at post Bota| TalSangamner| Dist. Ahmednagar.,Ahmednagar,Maharashtra,8600888433//8600888433,vncoe.principal@gmail.com,www.vidyaniketanglobal.com
Rajiv Gandhi College of Engineering| At Post Karjule Hariya Tal.Parner| Dist.Ahmednagar,At Post Karjule Harya| Tal. Parner| Dist Ahmednagar,Ahmednagar,Maharashtra,295101//9604049525,rajivgandhi.iot@gmail.com,www.rgcoe.org
Maulana Mukhtar Ahmad Nadvi Technical Campus| Malegaon.,Mansoora| Malegaon-Manmad Road| P.B.No.144| Malegaon| Nashik.,Nashik,Maharashtra,02554//9970178118,mmantc@gmail.com,www.mmantc.in
Nikam Institute of Technology(Polytechnic)|Dhule,Morane-Gondur byPass road|Gondur,Dhule,Maharashtra,297309//297309,5414nikampoly@gmail.com,www.nitgondur.org
Guru Gobind Singh College of Engineering & Research Centre| Nashik.,Khalsa Educational Complex| Guru Gobind Singh Marg| Nashik.,Nashik,Maharashtra,2372766//2372766,gcoerc.nashik@ggsf.edu.in,www.ggsf.edu.in
Mauli Institute of Technology (Polytechnic)| Amalner| Dist. Jalgaon,Gut No.25/1/A| Dheku Road| Ambasan Dheku| Amalner| District Jalgaon.,Jalgaon,Maharashtra,218200//7588007270,maulipoly@gmail.com,www.maulipoly.com
Shri. Sai Institute of Technology| Amalner,Gat NO.15/1| Devli/Devgaon| Tal.Amalner| Dist Jalgaon.,Jalgaon,Maharashtra,218312//9423479388,php_pune@rediffmail.com,shrisaiinstituteoftechnology.org
Shri Vile Parle Kelavani Mandal's Institute of Technology| Dhule,Survey No. 499/1| Plot No.2| Behind Gurudwara| Mumbai Agra Highway| Dhule,Dhule,Maharashtra,2562297801//2562297801,IOTDhule@svkm.ac.in,www.svkm-iot.ac.in
